THEOS-2 (T2V)           
1 58016U 23155A   23295.56201558  .00001595  00000+0  20959-3 0  9996
2 58016  97.9078   4.4094 0001347  87.5111 272.6256 14.81612241  1990
FORMOSAT-7R (TRITON)    
1 58017U 23155B   23295.58166473  .00002203  00000+0  24450-3 0  9992
2 58017  97.9275   4.5647 0001036 359.0467   1.0747 14.88260542  2003
ANSER-FLW2              
1 58018U 23155C   23295.55390028  .00005457  00000+0  45674-3 0  9990
2 58018  97.6715   4.1528 0004539 308.9581  51.1237 14.98856322  2014
ANSER-FLW1              
1 58019U 23155D   23295.55358687  .00005505  00000+0  46020-3 0  9996
2 58019  97.6714   4.1531 0004416 309.5725  50.5107 14.98898140  2012
NESS                    
1 58020U 23155E   23295.55188714  .00007889  00000+0  65322-3 0  9993
2 58020  97.6720   4.1561 0003974 307.8513  52.2350 14.99133666  2013
CSC 2                   
1 58021U 23155F   23295.55059279  .00003863  00000+0  32194-3 0  9996
2 58021  97.6723   4.1589 0001972 348.3228  11.7949 14.99202068  2013
CSC 1                   
1 58022U 23155G   23295.55034820  .00004769  00000+0  39588-3 0  9992
2 58022  97.6714   4.1573 0001978 347.6271  12.4903 14.99238262  2016
PRETTY                  
1 58023U 23155H   23295.54504178  .00007958  00000+0  64610-3 0  9997
2 58023  97.6711   4.1643 0000465 182.4707 177.6515 14.99893224  2019
MACSAT (FINCH 1)        
1 58024U 23155J   23295.54412113  .00007430  00000+0  60208-3 0  9999
2 58024  97.6709   4.1654 0000884 150.4561 209.6713 14.99987549  2017
PVCC                    
1 58025U 23155K   23295.54304169  .00005259  00000+0  42685-3 0  9997
2 58025  97.6708   4.1667 0002161 197.3021 162.8129 15.00062125  2010
STARLINK-30514          
1 58028U 23156A   23295.58334491 -.00668582  00000+0 -35462-2 0  9996
2 58028  53.0516 156.1552 0000876  75.6116  64.0055 15.81511270  3270
STARLINK-30518          
1 58029U 23156B   23295.58334491 -.00668850  00000+0 -35462-2 0  9995
2 58029  53.0512 156.1545 0000765  77.9234  61.9925 15.81521230  3271
STARLINK-30549          
1 58030U 23156C   23295.58334491 -.00686171  00000+0 -36542-2 0  9993
2 58030  53.0512 156.1458 0000624  90.5028  53.5265 15.81470477  2945
