[
  {
    "OBJECT_NAME": "THEOS-2 (T2V)",
    "OBJECT_ID": "2023-155A",
    "EPOCH": "2023-10-22T13:29:18.146112",
    "MEAN_MOTION": 14.81612241,
    "ECCENTRICITY": 0.0001347,
    "INCLINATION": 97.9078,
    "RA_OF_ASC_NODE": 4.4094,
    "ARG_OF_PERICENTER": 87.5111,
    "MEAN_ANOMALY": 272.6256,
    "EPHEMERIS_TYPE": 0,
    "CLASSIFICATION_TYPE": "U",
    "NORAD_CAT_ID": 58016,
    "ELEMENT_SET_NO": 999,
    "REV_AT_EPOCH": 199,
    "BSTAR": 0.00020959,
    "MEAN_MOTION_DOT": 1.595e-5,
    "MEAN_MOTION_DDOT": 0
  },
  {
    "OBJECT_NAME": "FORMOSAT-7R (TRITON)",
    "OBJECT_ID": "2023-155B",
    "EPOCH": "2023-10-22T13:57:35.832672",
    "MEAN_MOTION": 14.88260542,
    "ECCENTRICITY": 0.0001036,
    "INCLINATION": 97.9275,
    "RA_OF_ASC_NODE": 4.5647,
    "ARG_OF_PERICENTER": 359.0467,
    "MEAN_ANOMALY": 1.0747,
    "EPHEMERIS_TYPE": 0,
    "CLASSIFICATION_TYPE": "U",
    "NORAD_CAT_ID": 58017,
    "ELEMENT_SET_NO": 999,
    "REV_AT_EPOCH": 200,
    "BSTAR": 0.0002445,
    "MEAN_MOTION_DOT": 2.203e-5,
    "MEAN_MOTION_DDOT": 0
  },
  {
    "OBJECT_NAME": "ANSER-FLW2",
    "OBJECT_ID": "2023-155C",
    "EPOCH": "2023-10-22T13:17:36.984192",
    "MEAN_MOTION": 14.98856322,
    "ECCENTRICITY": 0.0004539,
    "INCLINATION": 97.6715,
    "RA_OF_ASC_NODE": 4.1528,
    "ARG_OF_PERICENTER": 308.9581,
    "MEAN_ANOMALY": 51.1237,
    "EPHEMERIS_TYPE": 0,
    "CLASSIFICATION_TYPE": "U",
    "NORAD_CAT_ID": 58018,
    "ELEMENT_SET_NO": 999,
    "REV_AT_EPOCH": 201,
    "BSTAR": 0.00045674,
    "MEAN_MOTION_DOT": 5.457e-5,
    "MEAN_MOTION_DDOT": 0
  },
  {
    "OBJECT_NAME": "ANSER-FLW1",
    "OBJECT_ID": "2023-155D",
    "EPOCH": "2023-10-22T13:17:09.905568",
    "MEAN_MOTION": 14.9889814,
    "ECCENTRICITY": 0.0004416,
    "INCLINATION": 97.6714,
    "RA_OF_ASC_NODE": 4.1531,
    "ARG_OF_PERICENTER": 309.5725,
    "MEAN_ANOMALY": 50.5107,
    "EPHEMERIS_TYPE": 0,
    "CLASSIFICATION_TYPE": "U",
    "NORAD_CAT_ID": 58019,
    "ELEMENT_SET_NO": 999,
    "REV_AT_EPOCH": 201,
    "BSTAR": 0.0004602,
    "MEAN_MOTION_DOT": 5.505e-5,
    "MEAN_MOTION_DDOT": 0
  },
  {
    "OBJECT_NAME": "NESS",
    "OBJECT_ID": "2023-155E",
    "EPOCH": "2023-10-22T13:14:43.048896",
    "MEAN_MOTION": 14.99133666,
    "ECCENTRICITY": 0.0003974,
    "INCLINATION": 97.672,
    "RA_OF_ASC_NODE": 4.1561,
    "ARG_OF_PERICENTER": 307.8513,
    "MEAN_ANOMALY": 52.235,
    "EPHEMERIS_TYPE": 0,
    "CLASSIFICATION_TYPE": "U",
    "NORAD_CAT_ID": 58020,
    "ELEMENT_SET_NO": 999,
    "REV_AT_EPOCH": 201,
    "BSTAR": 0.00065322,
    "MEAN_MOTION_DOT": 7.889e-5,
    "MEAN_MOTION_DDOT": 0
  },
  {
    "OBJECT_NAME": "CSC 2",
    "OBJECT_ID": "2023-155F",
    "EPOCH": "2023-10-22T13:12:51.217056",
    "MEAN_MOTION": 14.99202068,
    "ECCENTRICITY": 0.0001972,
    "INCLINATION": 97.6723,
    "RA_OF_ASC_NODE": 4.1589,
    "ARG_OF_PERICENTER": 348.3228,
    "MEAN_ANOMALY": 11.7949,
    "EPHEMERIS_TYPE": 0,
    "CLASSIFICATION_TYPE": "U",
    "NORAD_CAT_ID": 58021,
    "ELEMENT_SET_NO": 999,
    "REV_AT_EPOCH": 201,
    "BSTAR": 0.00032194,
    "MEAN_MOTION_DOT": 3.863e-5,
    "MEAN_MOTION_DDOT": 0
  },
  {
    "OBJECT_NAME": "CSC 1",
    "OBJECT_ID": "2023-155G",
    "EPOCH": "2023-10-22T13:12:30.084480",
    "MEAN_MOTION": 14.99238262,
    "ECCENTRICITY": 0.0001978,
    "INCLINATION": 97.6714,
    "RA_OF_ASC_NODE": 4.1573,
    "ARG_OF_PERICENTER": 347.6271,
    "MEAN_ANOMALY": 12.4903,
    "EPHEMERIS_TYPE": 0,
    "CLASSIFICATION_TYPE": "U",
    "NORAD_CAT_ID": 58022,
    "ELEMENT_SET_NO": 999,
    "REV_AT_EPOCH": 201,
    "BSTAR": 0.00039588,
    "MEAN_MOTION_DOT": 4.769e-5,
    "MEAN_MOTION_DDOT": 0
  },
  {
    "OBJECT_NAME": "PRETTY",
    "OBJECT_ID": "2023-155H",
    "EPOCH": "2023-10-22T13:04:51.609792",
    "MEAN_MOTION": 14.99893224,
    "ECCENTRICITY": 4.65e-5,
    "INCLINATION": 97.6711,
    "RA_OF_ASC_NODE": 4.1643,
    "ARG_OF_PERICENTER": 182.4707,
    "MEAN_ANOMALY": 177.6515,
    "EPHEMERIS_TYPE": 0,
    "CLASSIFICATION_TYPE": "U",
    "NORAD_CAT_ID": 58023,
    "ELEMENT_SET_NO": 999,
    "REV_AT_EPOCH": 201,
    "BSTAR": 0.0006461,
    "MEAN_MOTION_DOT": 7.958e-5,
    "MEAN_MOTION_DDOT": 0
  },
  {
    "OBJECT_NAME": "MACSAT (FINCH 1)",
    "OBJECT_ID": "2023-155J",
    "EPOCH": "2023-10-22T13:03:32.065632",
    "MEAN_MOTION": 14.99987549,
    "ECCENTRICITY": 8.84e-5,
    "INCLINATION": 97.6709,
    "RA_OF_ASC_NODE": 4.1654,
    "ARG_OF_PERICENTER": 150.4561,
    "MEAN_ANOMALY": 209.6713,
    "EPHEMERIS_TYPE": 0,
    "CLASSIFICATION_TYPE": "U",
    "NORAD_CAT_ID": 58024,
    "ELEMENT_SET_NO": 999,
    "REV_AT_EPOCH": 201,
    "BSTAR": 0.00060208,
    "MEAN_MOTION_DOT": 7.43e-5,
    "MEAN_MOTION_DDOT": 0
  },
  {
    "OBJECT_NAME": "PVCC",
    "OBJECT_ID": "2023-155K",
    "EPOCH": "2023-10-22T13:01:58.802016",
    "MEAN_MOTION": 15.00062125,
    "ECCENTRICITY": 0.0002161,
    "INCLINATION": 97.6708,
    "RA_OF_ASC_NODE": 4.1667,
    "ARG_OF_PERICENTER": 197.3021,
    "MEAN_ANOMALY": 162.8129,
    "EPHEMERIS_TYPE": 0,
    "CLASSIFICATION_TYPE": "U",
    "NORAD_CAT_ID": 58025,
    "ELEMENT_SET_NO": 999,
    "REV_AT_EPOCH": 201,
    "BSTAR": 0.00042685,
    "MEAN_MOTION_DOT": 5.259e-5,
    "MEAN_MOTION_DDOT": 0
  },
  {
    "OBJECT_NAME": "STARLINK-30514",
    "OBJECT_ID": "2023-156A",
    "EPOCH": "2023-10-22T14:00:01.000224",
    "MEAN_MOTION": 15.8151127,
    "ECCENTRICITY": 8.76e-5,
    "INCLINATION": 53.0516,
    "RA_OF_ASC_NODE": 156.1552,
    "ARG_OF_PERICENTER": 75.6116,
    "MEAN_ANOMALY": 64.0055,
    "EPHEMERIS_TYPE": 0,
    "CLASSIFICATION_TYPE": "U",
    "NORAD_CAT_ID": 58028,
    "ELEMENT_SET_NO": 999,
    "REV_AT_EPOCH": 327,
    "BSTAR": -0.0035462,
    "MEAN_MOTION_DOT": -0.00668582,
    "MEAN_MOTION_DDOT": 0
  },
  {
    "OBJECT_NAME": "STARLINK-30518",
    "OBJECT_ID": "2023-156B",
    "EPOCH": "2023-10-22T14:00:01.000224",
    "MEAN_MOTION": 15.8152123,
    "ECCENTRICITY": 7.65e-5,
    "INCLINATION": 53.0512,
    "RA_OF_ASC_NODE": 156.1545,
    "ARG_OF_PERICENTER": 77.9234,
    "MEAN_ANOMALY": 61.9925,
    "EPHEMERIS_TYPE": 0,
    "CLASSIFICATION_TYPE": "U",
    "NORAD_CAT_ID": 58029,
    "ELEMENT_SET_NO": 999,
    "REV_AT_EPOCH": 327,
    "BSTAR": -0.0035462,
    "MEAN_MOTION_DOT": -0.0066885,
    "MEAN_MOTION_DDOT": 0
  },
  {
    "OBJECT_NAME": "STARLINK-30549",
    "OBJECT_ID": "2023-156C",
    "EPOCH": "2023-10-22T14:00:01.000224",
    "MEAN_MOTION": 15.81470477,
    "ECCENTRICITY": 6.24e-5,
    "INCLINATION": 53.0512,
    "RA_OF_ASC_NODE": 156.1458,
    "ARG_OF_PERICENTER": 90.5028,
    "MEAN_ANOMALY": 53.5265,
    "EPHEMERIS_TYPE": 0,
    "CLASSIFICATION_TYPE": "U",
    "NORAD_CAT_ID": 58030,
    "ELEMENT_SET_NO": 999,
    "REV_AT_EPOCH": 294,
    "BSTAR": -0.0036542,
    "MEAN_MOTION_DOT": -0.00686171,
    "MEAN_MOTION_DDOT": 0
  }
]
